OBJECT_NAME,OBJECT_ID,EPOCH,MEAN_MOTION,ECCENTRICITY,INCLINATION,RA_OF_ASC_NODE,ARG_OF_PERICENTER,MEAN_ANOMALY,EPHEMERIS_TYPE,CLASSIFICATION_TYPE,NORAD_CAT_ID,ELEMENT_SET_NO,REV_AT_EPOCH,BSTAR,MEAN_MOTION_DOT,MEAN_MOTION_DDOT
SIRION PATHFINDER-2,2018-099B,2026-06-27T02:12:06.707520,15.14632172,.00071312,97.4250,226.9136,262.6493,97.3929,0,U,43759,999,41412,.28857391E-3,.5271E-4,0
CORVUS BC4,2018-099K,2026-06-27T02:40:56.903808,15.12571037,.00072111,97.4064,220.8013,337.9968,22.0952,0,U,43767,999,41390,.25874044E-3,.4452E-4,0
M2 PATHFINDER,2020-037E,2026-06-27T00:31:35.033664,15.04711813,.00125753,97.8135,9.3636,117.8721,242.3781,0,U,45727,999,32697,.22780962E-3,.3149E-4,0
NETSAT-4,2020-068U,2026-06-27T07:11:31.056864,15.44191965,.00031855,97.8598,187.3544,282.9922,77.0969,0,U,46504,999,31733,.4142771E-3,.18932E-3,0
NETSAT-3,2020-068V,2026-06-27T05:58:16.999104,15.43018128,.00030343,97.8651,185.5034,312.7738,47.3253,0,U,46505,999,31723,.44883833E-3,.19725E-3,0
NETSAT-1,2020-068W,2026-06-26T23:31:55.708032,15.34858405,.0003797,97.8742,179.4288,359.9684,0.1557,0,U,46506,999,31680,.36068261E-3,.12112E-3,0
NETSAT-2,2020-068X,2026-06-27T00:02:46.678560,15.46408837,.0001955,97.8611,186.9638,349.3625,10.7581,0,U,46507,999,31725,.49663917E-3,.24515E-3,0
GREENCUBE (IO-117),2022-080E,2026-06-26T16:16:29.555040,6.42583228,.00089846,70.1443,294.9444,287.5437,72.4241,0,U,53109,999,9267,0,-.3E-7,0
SITRO-AIS 5 (KATYS),2023-091L,2026-06-27T06:36:49.292928,15.29681288,.00123581,97.5063,242.2716,72.1195,288.1392,0,U,57176,999,16588,.45026203E-3,.12908E-3,0
SITRO-AIS 6 (CHIRKIN),2023-091AC,2026-06-27T06:40:10.469280,15.26121768,.00127864,97.5069,241.3393,75.3578,284.9077,0,U,57192,999,16582,.41030446E-3,.10543E-3,0
SITRO-AIS 8 (ANOKHIN),2023-091AD,2026-06-27T06:35:46.342752,15.32401854,.00112938,97.5059,243.9008,68.5343,291.7102,0,U,57193,999,16599,.5112858E-3,.15962E-3,0
SITRO-AIS 7 (FARTUSHNIY),2023-091AE,2026-06-27T06:47:41.787456,15.25805329,.00127055,97.5067,241.1642,76.2550,284.0102,0,U,57194,999,16581,.3937108E-3,.10017E-3,0
SITRO-AIS 10 (BURDAEV),2023-091AK,2026-06-27T06:19:38.681760,15.38982966,.00066812,97.5085,249.0484,48.7033,311.4786,0,U,57199,999,16631,.53515175E-3,.20613E-3,0
SITRO-AIS 9 (SHCHUKIN),2023-091AM,2026-06-27T07:02:20.143680,15.38483272,.00069193,97.5082,248.8007,48.9287,311.2555,0,U,57201,999,16630,.56319302E-3,.2135E-3,0
SITRO-AIS 12 (SMIRENNIY),2023-091AQ,2026-06-27T06:46:03.412416,15.38777652,.00064205,97.5095,249.2626,43.5734,316.6017,0,U,57204,999,16632,.57627417E-3,.22058E-3,0
SITRO-AIS 11 (SHEFFER),2023-091AU,2026-06-27T07:01:20.150976,15.39206701,.00063008,97.5094,249.5264,43.3434,316.8306,0,U,57208,999,16634,.55317786E-3,.21467E-3,0
SITRO-AIS 25,2024-039R,2026-06-27T07:00:18.101088,14.93559188,.01425755,95.3908,242.0364,293.0080,65.6160,0,U,59066,999,12623,.18498637E-3,.2345E-4,0
SITRO-AIS 26,2024-039S,2026-06-27T07:04:16.210848,14.93353434,.01429264,95.3908,241.9338,293.5970,65.0301,0,U,59067,999,12622,.18761964E-3,.2367E-4,0
SITRO-AIS 27,2024-039T,2026-06-27T06:17:20.690592,14.93776550,.01418361,95.3913,242.1878,292.2865,66.3373,0,U,59068,999,12624,.25514717E-3,.3261E-4,0
SITRO-AIS 28,2024-039U,2026-06-27T07:20:59.576640,14.93807951,.01418448,95.3910,242.2660,291.9512,66.6688,0,U,59071,999,12625,.22341538E-3,.2853E-4,0
GRBBETA,2024-128C,2026-06-27T07:23:17.619648,15.06697529,.00393782,61.9879,180.7560,136.7389,223.6809,0,U,60237,999,10779,.24774776E-3,.3542E-4,0
OOV-CUBE (TUBSAT-30),2024-128F,2026-06-27T07:15:24.714432,15.02808276,.00433801,61.9924,190.3003,136.0271,224.4286,0,U,60240,999,10763,.14516868E-3,.1776E-4,0
ROBUSTA-3A (MEDITERRANEE),2024-128J,2026-06-27T06:07:19.313760,15.11766130,.00400455,61.9840,172.6375,130.2570,230.2039,0,U,60243,999,10794,.33997581E-3,.5716E-4,0
LASARSAT,2024-247Q,2026-06-27T05:53:43.342656,15.46939877,.00071279,44.9725,205.6685,32.7505,327.3826,0,U,62391,999,8487,.61600853E-3,.31535E-3,0
CROCUBE,2024-247T,2026-06-26T18:42:28.991808,15.48873131,.00069271,44.9695,205.4645,34.5174,325.6166,0,U,62394,999,8483,.64439449E-3,.35343E-3,0
FORESAIL-1 PRIME,2025-276DS,2026-06-27T03:25:56.907264,15.18788261,.00038901,97.4203,251.2317,83.4614,276.7063,0,U,66778,999,3191,.26439553E-3,.5433E-4,0
KNACKSAT-2,1998-067XZ,2026-06-26T21:25:59.704896,15.60825200,.00086615,51.6279,245.6263,259.0293,100.9727,0,U,67683,999,2179,.5485367E-3,.46488E-3,0
