SIRION PATHFINDER-2     
1 43759U 18099B   26178.09174430  .00005271  00000+0  28857-3 0  9994
2 43759  97.4250 226.9136 0007131 262.6493  97.3929 15.14632172414123
CORVUS BC4              
1 43767U 18099K   26178.11176972  .00004452  00000+0  25874-3 0  9995
2 43767  97.4064 220.8013 0007211 337.9968  22.0952 15.12571037413900
M2 PATHFINDER           
1 45727U 20037E   26178.02193326  .00003149  00000+0  22781-3 0  9996
2 45727  97.8135   9.3636 0012575 117.8721 242.3781 15.04711813326979
NETSAT-4                
1 46504U 20068U   26178.29966501  .00018932  00000+0  41428-3 0  9991
2 46504  97.8598 187.3544 0003185 282.9922  77.0969 15.44191965317330
NETSAT-3                
1 46505U 20068V   26178.24880786  .00019725  00000+0  44884-3 0  9997
2 46505  97.8651 185.5034 0003034 312.7738  47.3253 15.43018128317238
NETSAT-1                
1 46506U 20068W   26177.98050588  .00012112  00000+0  36068-3 0  9995
2 46506  97.8742 179.4288 0003797 359.9684   0.1557 15.34858405316808
NETSAT-2                
1 46507U 20068X   26178.00192915  .00024515  00000+0  49664-3 0  9997
2 46507  97.8611 186.9638 0001955 349.3625  10.7581 15.46408837317255
GREENCUBE (IO-117)      
1 53109U 22080E   26177.67811985 -.00000003  00000+0  00000+0 0  9990
2 53109  70.1443 294.9444 0008984 287.5437  72.4241  6.42583228 92674
SITRO-AIS 5 (KATYS)     
1 57176U 23091L   26178.27557052  .00012908  00000+0  45026-3 0  9997
2 57176  97.5063 242.2716 0012358  72.1195 288.1392 15.29681288165887
SITRO-AIS 6 (CHIRKIN)   
1 57192U 23091AC  26178.27789895  .00010543  00000+0  41030-3 0  9991
2 57192  97.5069 241.3393 0012786  75.3578 284.9077 15.26121768165824
SITRO-AIS 8 (ANOKHIN)   
1 57193U 23091AD  26178.27484193  .00015962  00000+0  51129-3 0  9995
2 57193  97.5059 243.9008 0011293  68.5343 291.7102 15.32401854165998
SITRO-AIS 7 (FARTUSHNIY)
1 57194U 23091AE  26178.28312254  .00010017  00000+0  39371-3 0  9996
2 57194  97.5067 241.1642 0012705  76.2550 284.0102 15.25805329165810
SITRO-AIS 10 (BURDAEV)  
1 57199U 23091AK  26178.26364215  .00020613  00000+0  53515-3 0  9992
2 57199  97.5085 249.0484 0006681  48.7033 311.4786 15.38982966166318
SITRO-AIS 9 (SHCHUKIN)  
1 57201U 23091AM  26178.29328870  .00021350  00000+0  56319-3 0  9990
2 57201  97.5082 248.8007 0006919  48.9287 311.2555 15.38483272166301
SITRO-AIS 12 (SMIRENNIY)
1 57204U 23091AQ  26178.28198394  .00022058  00000+0  57627-3 0  9997
2 57204  97.5095 249.2626 0006420  43.5734 316.6017 15.38777652166327
SITRO-AIS 11 (SHEFFER)  
1 57208U 23091AU  26178.29259434  .00021467  00000+0  55318-3 0  9993
2 57208  97.5094 249.5264 0006300  43.3434 316.8306 15.39206701166341
SITRO-AIS 25            
1 59066U 24039R   26178.29187617  .00002345  00000+0  18499-3 0  9996
2 59066  95.3908 242.0364 0142575 293.0080  65.6160 14.93559188126230
SITRO-AIS 26            
1 59067U 24039S   26178.29463207  .00002367  00000+0  18762-3 0  9996
2 59067  95.3908 241.9338 0142926 293.5970  65.0301 14.93353434126229
SITRO-AIS 27            
1 59068U 24039T   26178.26204503  .00003261  00000+0  25515-3 0  9994
2 59068  95.3913 242.1878 0141836 292.2865  66.3373 14.93776550126249
SITRO-AIS 28            
1 59071U 24039U   26178.30624510  .00002853  00000+0  22342-3 0  9998
2 59071  95.3910 242.2660 0141844 291.9512  66.6688 14.93807951126257
GRBBETA                 
1 60237U 24128C   26178.30784282  .00003542  00000+0  24775-3 0  9994
2 60237  61.9879 180.7560 0039378 136.7389 223.6809 15.06697529107798
OOV-CUBE (TUBSAT-30)    
1 60240U 24128F   26178.30236938  .00001776  00000+0  14517-3 0  9998
2 60240  61.9924 190.3003 0043380 136.0271 224.4286 15.02808276107633
ROBUSTA-3A (MEDITERRAN*)
1 60243U 24128J   26178.25508465  .00005716  00000+0  33998-3 0  9994
2 60243  61.9840 172.6375 0040045 130.2570 230.2039 15.11766130107948
LASARSAT                
1 62391U 24247Q   26178.24564054  .00031535  00000+0  61601-3 0  9997
2 62391  44.9725 205.6685 0007127  32.7505 327.3826 15.46939877 84872
CROCUBE                 
1 62394U 24247T   26177.77950222  .00035343  00000+0  64439-3 0  9996
2 62394  44.9695 205.4645 0006927  34.5174 325.6166 15.48873131 84830
FORESAIL-1 PRIME        
1 66778U 25276DS  26178.14301976  .00005433  00000+0  26440-3 0  9994
2 66778  97.4203 251.2317 0003890  83.4614 276.7063 15.18788261 31910
KNACKSAT-2              
1 67683U 98067XZ  26177.89305214  .00046488  00000+0  54854-3 0  9993
2 67683  51.6279 245.6263 0008661 259.0293 100.9727 15.60825200 21795
